KEPLER-2 (TARS)         
1 46319U 20061AZ  23339.15596028  .00022916  00000+0  83687-3 0  9992
2 46319  97.3816  45.1469 0003095  88.4903 271.6691 15.28116809179872
NAPA-1                  
1 46320U 20061BA  23339.78578320  .00010763  00000+0  51558-3 0  9997
2 46320  97.3834  42.3658 0004100  93.8663 266.3040 15.19103718179744
FLOCK 4V-2              
1 46321U 20061BB  23339.14590939  .00151457  00000+0  18607-2 0  9991
2 46321  97.3750  52.6460 0000868 315.7401  44.3786 15.59774766180238
JILIN-1 GAOFEN 3B       
1 46454U 20065A   23339.78967020  .00011124  00000+0  51247-3 0  9995
2 46454  97.3724  23.6561 0011975 172.3583 187.7837 15.20390441177849
JILIN-1 GAOFEN 3E       
1 46457U 20065D   23339.79242000  .00011028  00000+0  50981-3 0  9990
2 46457  97.3732  23.7668 0010152 191.6131 168.4872 15.20291469177844
JILIN-1 GAOFEN 3F       
1 46458U 20065E   23339.76863182  .00010321  00000+0  47699-3 0  9995
2 46458  97.3661  22.7319 0010835 180.8244 179.2975 15.20310014177843
JILIN-1 GAOFEN 3G       
1 46459U 20065F   23339.82227717  .00011427  00000+0  52675-3 0  9999
2 46459  97.3781  24.7319 0011569 187.3443 172.7625 15.20366348177859
JILIN-1 GAOFEN 3H       
1 46460U 20065G   23339.77337810  .00010299  00000+0  47761-3 0  9997
2 46460  97.3674  22.9295 0010896 183.2343 176.8824 15.20193223177846
JILIN-1 GAOFEN 3J       
1 46462U 20065J   23339.80093623  .00011380  00000+0  52444-3 0  9990
2 46462  97.3721  23.7515 0010594 180.6576 179.4648 15.20385000177859
HAIYANG-2C              
1 46469U 20066A   23339.80484832  .00000016  00000+0  88716-4 0  9990
2 46469  65.9973 356.7916 0014378 274.2488  85.6937 13.83372775161917
HJ-2A                   
1 46478U 20067A   23339.74620644  .00001411  00000+0  20981-3 0  9996
2 46478  97.9573  59.8227 0001544  66.7065 293.4307 14.76513674171841
HJ-2B                   
1 46479U 20067B   23339.78139360  .00001444  00000+0  21454-3 0  9993
2 46479  97.9610  60.3279 0002216  90.7980 269.3484 14.76513607171853
GONETS-M 17             
1 46486U 20068A   23339.77560814  .00000010  00000+0  51254-5 0  9994
2 46486  82.4983 202.5428 0022596 251.8685 107.9934 12.42900165144503
GONETS-M 18             
1 46487U 20068B   23339.74102133  .00000026  00000+0  12069-3 0  9994
2 46487  82.4938 202.0339 0019744 248.3441 111.5535 12.42879551144504
GONETS-M 19             
1 46488U 20068C   23339.63505057  .00000014  00000+0  29283-4 0  9999
2 46488  82.4962 202.3584 0013415 264.6953  95.2596 12.42874584144398
MEZNSAT                 
1 46489U 20068D   23339.82154089  .00016454  00000+0  81479-3 0  9995
2 46489  97.7881 293.6416 0011607 241.9756 118.0303 15.17803932175214
YARILO 1                
1 46490U 20068E   23339.46000853  .00015486  00000+0  74019-3 0  9992
2 46490  97.7894 293.8435 0011054 244.0959 115.9136 15.19057942175199
YARILO 2                
1 46491U 20068F   23339.84060724  .00018329  00000+0  88408-3 0  9994
2 46491  97.7897 294.0232 0011205 243.9225 116.0855 15.18700961175233
LACUNASAT-3             
1 46492U 20068G   23339.61670359  .00019197  00000+0  89086-3 0  9998
2 46492  97.7879 294.2175 0010429 241.9535 118.0644 15.20036893175216
DEKART                  
1 46493U 20068H   23339.54609183  .00007924  00000+0  47453-3 0  9995
2 46493  97.7921 290.6301 0013905 260.2164  99.7495 15.11210674174961
NORBI                   
1 46494U 20068J   23339.56453354  .00008630  00000+0  49883-3 0  9999
2 46494  97.7916 291.0574 0013138 259.4959 100.4790 15.12472217174998
SALSAT                  
1 46495U 20068K   23339.83310322  .00006226  00000+0  38703-3 0  9995
2 46495  97.7914 290.0821 0012906 255.6820 104.2975 15.09954741174954
ICEYE-X6                
1 46497U 20068M   23339.80552185  .00006412  00000+0  51011-3 0  9993
2 46497  97.8839 287.3372 0005325 334.4537  25.6423 15.00757309174519
LEMUR-2-SLICERS         
1 46500U 20068Q   23339.32333618  .00022975  00000+0  88482-3 0  9997
2 46500  97.7724 293.6088 0004669 257.1865 102.8851 15.26358324175151
LEMUR-2-SUSURRUS        
1 46502U 20068S   23339.38971186  .00030832  00000+0  11848-2 0  9995
2 46502  97.7744 293.7072 0004532 254.0583 106.0156 15.26368137175169
NETSAT-4                
1 46504U 20068U   23339.79908090  .00009028  00000+0  54913-3 0  9990
2 46504  97.7837 287.7349 0009133 315.9223  44.1277 15.10645173174788
NETSAT-3                
1 46505U 20068V   23339.39595152  .00007584  00000+0  46644-3 0  9995
2 46505  97.7813 287.0357 0008650 328.1360  31.9345 15.10304902174722
NETSAT-1                
1 46506U 20068W   23339.36149799  .00006076  00000+0  38265-3 0  9990
2 46506  97.7820 286.7801 0007635 339.8625  20.2301 15.09532671174701
NETSAT-2                
1 46507U 20068X   23339.40783796  .00008836  00000+0  53911-3 0  9998
2 46507  97.7821 287.0335 0007217 348.4639  11.6424 15.10552744174677
FLOCK 4V-16             
1 46527U 20061BD  23339.20669756  .00055409  00000+0  79653-3 0  9999
2 46527  97.3306  54.0121 0001536  33.4278 326.7073 15.55910876177010
FLOCK 4V-17             
1 46529U 20061BF  23339.19851782  .00048401  00000+0  74544-3 0  9999
2 46529  97.3264  53.6380 0002366  43.3875 316.7565 15.54049768176580
FLOCK 4V-20             
1 46612U 20061BJ  23339.14192465  .00015009  00000+0  44440-3 0  9993
2 46612  97.3430  49.0293 0004946  46.0661 314.0990 15.34963391174631
TIANQI-6                
1 46810U 20076D   23339.82719828  .00004088  00000+0  36562-3 0  9993
2 46810  35.0024 272.6739 0013204   0.6042 359.4679 14.95311937169667
FLOCK 4V-25             
1 46812U 20061BP  23339.66190458  .00060365  00000+0  90453-3 0  9992
2 46812  97.3240  53.9126 0002987   1.8366 358.2898 15.54752276173079
KSM1-C                  
1 46906U 20081B   23339.26234406  .00006029  00000+0  41249-3 0  9992
2 46906  36.8946 276.8502 0001850 115.7069 244.3865 15.05838667168721
KSM1-D                  
1 46907U 20081C   23339.80528171  .00005887  00000+0  40478-3 0  9992
2 46907  36.8989 274.1055 0004532 142.0955 218.0107 15.05658795168875
KSM1-A                  
1 46912U 20081H   23339.84864508  .00005956  00000+0  40807-3 0  9992
2 46912  36.8981 272.5348 0005565 219.3162 140.7176 15.05783426168894
R2                      
1 46913U 20081J   23339.84595773  .00005831  00000+0  39735-3 0  9998
2 46913  36.9025 271.0339 0009269 155.4388 204.6798 15.05972636168235
KSM1-B                  
1 46914U 20081K   23339.74486706  .00005784  00000+0  39788-3 0  9998
2 46914  36.9024 273.8589 0007750 163.3668 196.7329 15.05639427168143
CORVUS BC5              
1 46931U 20085C   23339.70410043  .00083783  00000+0  99928-3 0  9995
2 46931  97.4973 131.8753 0007206 300.7802  59.2745 15.60760670169823
BRO-3                   
1 46943U 20085Q   23339.85646595  .00214648  00000+0  14018-2 0  9999
2 46943  97.4640 131.1529 0006340 286.7881  73.2688 15.75206724169912
GONETS-M 20             
1 47227U 20091A   23339.73282954  .00000003  00000+0 -48155-4 0  9994
2 47227  82.5021 157.0532 0021074  39.9580 320.3046 12.42899090136353
GONETS-M 21             
1 47228U 20091B   23339.78718227  .00000051  00000+0  29587-3 0  9996
2 47228  82.4943 156.3019 0015125  53.6274 306.6199 12.42875540136362
GONETS-M 22             
1 47229U 20091C   23339.76056975  .00000037  00000+0  19741-3 0  9995
2 47229  82.5000 156.7859 0021889  33.2693 326.9758 12.42872051136345
HAISI 1                 
1 47297U 20102B   23339.79086840  .00034901  00000+0  89411-3 0  9998
2 47297  97.4291  79.3082 0003644 351.1718   8.9463 15.39298488164182
CAPE-3                  
1 47309U 21002A   23339.53993593  .00125967  00000+0  12686-2 0  9998
2 47309  60.6671 110.3499 0023586  37.1414 323.1319 15.64354454160844
RADFXSAT-2 (AO-109)     
1 47311U 21002C   23339.54082369  .00064010  00000+0  95383-3 0  9999
2 47311  60.6743 113.6764 0024165  38.6217 321.6608 15.54331812160766
CP12 (EXOCUBE 2)        
1 47319U 21002L   23339.52810935  .00059872  00000+0  94370-3 0  9998
2 47319  60.6724 116.9011 0024978  39.0225 321.2672 15.52790664160679
UVSQ-SAT                
1 47438U 21006AB  23339.12893329  .00024790  00000+0  80385-3 0  9990
2 47438  97.3608  34.3417 0008010 187.4101 172.7024 15.31942974158747
YUSAT-1                 
1 47439U 21006AC  23339.40238631  .00035423  00000+0  96499-3 0  9999
2 47439  97.3610  36.3197 0007107 180.2596 179.8646 15.37381064158890
2021-006AE              
1 47441U 21006AE  23339.74998117  .00043587  00000+0  10797-2 0  9997
2 47441  97.3491  36.5406 0006907 180.6762 179.4477 15.40260043158964
SOMP2B                  
1 47445U 21006AJ  23339.15226230  .00022632  00000+0  76168-3 0  9999
2 47445  97.3572  33.3076 0007890 192.4327 167.6721 15.30761814158700
CUBEL                   
1 47448U 21006AM  23339.15023928  .00005132  00000+0  25266-3 0  9990
2 47448  97.3745  30.5178 0010099 212.5953 147.4659 15.18375048158398
FLOCK 4S-21             
1 47456U 21006AV  23339.14655823  .00024270  00000+0  66475-3 0  9994
2 47456  97.3669  38.0221 0006921 173.1432 186.9908 15.37291022158921
IDEASSAT                
1 47458U 21006AX  23339.09690519  .00021015  00000+0  73386-3 0  9994
2 47458  97.3672  34.0377 0007214 192.7188 167.3871 15.29582842158663
NASA PTD-1              
1 47482U 21006BX  23339.12061038  .00157062  00000+0  19568-2 0  9996
2 47482  97.3728  40.6045 0003755 174.9167 185.2128 15.59379717159058
ASTROCAST-0103          
1 47487U 21006CC  23339.09268404  .00009400  00000+0  41437-3 0  9996
2 47487  97.3819  31.2803 0007188 227.0534 133.0100 15.21990612158438
ASTROCAST-0102          
1 47488U 21006CD  23339.58038661  .00011301  00000+0  49134-3 0  9996
2 47488  97.3733  31.0395 0008205 205.7955 154.2874 15.22405712158503
LEMUR-2-RUAIRI-EILIDH   
1 47511U 21006DC  23339.11911788  .00099543  00000+0  16034-2 0  9998
2 47511  97.3626  38.8455 0002760 169.0995 191.0318 15.52596960159028
